#aV2024  4 16  0  0  0.00000000     288 DD+AD WGS84 FIT  NGA
## 2310 172800.00000000   300.00000000 60416 0.0000000000000
+   32     1  2  3  4  5  6  7  8  9 10 11 12 13 14 15 16 17
+         18 19 20 21 22 23 24 25 26 27 28 29 30 31 32  0  0
+          0  0  0  0  0  0  0  0  0  0  0  0  0  0  0  0  0
+          0  0  0  0  0  0  0  0  0  0  0  0  0  0  0  0  0
+          0  0  0  0  0  0  0  0  0  0  0  0  0  0  0  0  0
++         2  2  2  2  2  2  2  2  2  2  2  2  2  2  2  2  2
++         2  2  2  2  2  2  2  2  2  2  2  2  2  2  2  0  0
++         0  0  0  0  0  0  0  0  0  0  0  0  0  0  0  0  0
++         0  0  0  0  0  0  0  0  0  0  0  0  0  0  0  0  0
++         0  0  0  0  0  0  0  0  0  0  0  0  0  0  0  0  0
%c cc cc ccc ccc cccc cccc cccc cccc ccccc ccccc ccccc ccccc
%c cc cc ccc ccc cccc cccc cccc cccc ccccc ccccc ccccc ccccc
%f  0.0000000  0.000000000  0.00000000000  0.000000000000000
%f  0.0000000  0.000000000  0.00000000000  0.000000000000000
%i    0    0    0    0      0      0      0      0         0
%i    0    0    0    0      0      0      0      0         0
/*      NGA, ST. LOUIS,MO.                                  
/*   EPHEMERIS COMPUTED FROM 2 DAYS OF DATA                 
/*   EPOCHA v9 SMOOTHER                                     
/*   G2296 IERS2010 SATIGS SATAPC                           
*  2024  4 16  0 25  0.00000000
P  1   1650.019202  15375.938995 -21898.607044    180.238947                    
V  1 -24014.388388  12221.370951   7205.921093      0.024998                    
P  2  -9347.541757  19062.233051 -15300.413039   -452.687583                    
V  2 -18104.343010   9650.574401  22654.641916      0.064924                    
P  3   3945.736851  17603.467036 -19686.810085    312.839361                    
V  3 -21544.474805 -11848.948007 -14906.202627      0.209107                    
P  4  -1579.500286  26436.332459   -507.227685    339.696678                    
V  4  -2789.119818   -797.706466 -31910.830081      0.087576                    
P  5  10981.494777 -10803.654196  21471.221359   -169.280040                    
V  5  24226.208688  13305.809193  -5559.900095     -0.013795                    
P  6  23291.883262  -3448.842472 -12336.349022    319.965826                    
V  6 -13054.001761   8815.211808 -26862.474491     -0.180621                    
P  7  11050.256763  11603.017725  21736.921235   -108.180969                    
V  7 -22932.639525  13086.639512   4315.983943     -0.084361                    
P  8  -6618.006327  23406.070219  10030.999423    124.285580                    
V  8  -3339.834117 -12979.684352  28208.033357      0.230312                    
P  9   8318.562619  22422.466758  11418.011859    161.842543                    
V  9  -2351.142946  14675.373299 -26971.601923      0.136568                    
P 10 -24073.775766 -10342.137755  -5090.467110     -9.373308                    
V 10  -4804.077624  -4949.679787  31179.475398     -0.045266                    
P 11  23791.813927 -11745.406884   -212.334258   -637.491400                    
V 11    935.788207   2534.207362 -31909.428646     -0.104663                    
P 12  -1142.717536 -17732.965827 -20043.748303   -496.931574                    
V 12  21006.216617  13230.501714 -13034.355874     -0.034300                    
P 13  13205.535787 -16876.939720  15335.987384    643.049962                    
V 13  -1063.262201  19982.515282  22829.855326      0.031082                    
P 14  23172.641084  13094.823272  -1690.493641    377.297678                    
V 14    193.921823   3778.987753  31199.829508      0.095273                    
P 15   3664.378883 -24234.095385   9483.357452    148.854633                    
V 15   5293.567506  12235.861152  27984.176694      0.040752                    
P 16 -15907.409025   5916.880159  20207.369997   -315.745366                    
V 16 -20883.454085 -15994.358734 -11125.922371      0.094362                    
P 17  12796.646529  11443.467209 -19804.515160    711.113702                    
V 17  -3085.371499  25943.042493  12882.320375     -0.005793                    
P 18 -11338.873127 -10549.004390  21613.159402   -595.141965                    
V 18  23914.227269 -13264.963629   5889.916330     -0.066013                    
P 19  15048.832281   1596.205474 -22008.623085    468.765523                    
V 19  -3020.787707  27316.911095   -454.702666      0.053455                    
P 20  20545.028421  -4555.882280  16177.451900    380.037120                    
V 20  18456.978980   9182.177327 -21081.838805     -0.013876                    
P 21 -13535.813757  18921.837408 -11361.334686    127.034673                    
V 21 -14605.764978   6112.037141  27522.968428     -0.016255                    
P 22  23009.313369   8631.305434  -9270.002582     -0.052010                    
V 22   8435.705187   9606.632827  28875.216611     -0.055892                    
P 23 -20052.118476 -16264.069677   6675.499980    201.951595                    
V 23   8295.139893   2332.156176  30519.974214      0.092533                    
P 24  10083.557966 -19977.170267 -14401.433186   -459.791351                    
V 24  16278.340373  -7811.492996  23309.542858     -0.043634                    
P 25 -11893.503820 -18963.342959 -14834.422714    493.841373                    
V 25  16790.113857   7234.603524 -22985.602723      0.008394                    
P 26 -23712.176862  -1646.335926  12065.185829    166.140966                    
V 26 -12644.757857  -9385.523400 -25443.021415     -0.050867                    
P 27 -12725.410585  13990.928560  18181.501862    -18.864827                    
V 27  -1697.141243 -23837.974720  17309.049645     -0.022736                    
P 28 -22266.010351   1759.092181 -14383.449702   -204.931756                    
V 28  14512.681135 -11247.715787 -23867.564640     -0.151552                    
P 29  -4567.635671 -24194.680540   9760.800303   -601.739444                    
V 29   3396.860279 -12243.173229 -28704.278686      0.012358                    
P 30  20063.005621   3422.063954  17342.683849   -404.649955                    
V 30 -18017.916231  12294.140733  18299.512343      0.055967                    
P 31 -24723.115640   8920.958926  -5311.114694   -228.009917                    
V 31   4446.550371  -5280.680148 -30410.974123      0.000332                    
P 32 -14395.890010  -8077.481601 -20639.176304   -618.141154                    
V 32    835.042417 -26640.425609   9547.558303     -0.004122                    
EOF
